
[8ptuttle]
orbit_PericenterDistance = 1.026082
absolute_magnitude = 8
type = comet
coord_func = comet_orbit
dust_lengthfactor = 0.4
radius = 5
name = 8P/Tuttle
orbit_Inclination = 54.9116
dust_brightnessfactor = 1.5
orbit_AscendingNode = 270.2048
slope_parameter = 8
orbit_visualization_period = 4976.607944398314
albedo = 0.1
orbit_good = 1000
dust_widthfactor = 1.5
orbit_Eccentricity = 0.82013
orbit_ArgOfPericenter = 207.4908
orbit_TimeAtPericenter = 2459454.2556944443

[9ptempel]
orbit_PericenterDistance = 1.544046
absolute_magnitude = 9
type = comet
coord_func = comet_orbit
dust_lengthfactor = 0.4
radius = 5
name = 9P/Tempel
orbit_Inclination = 10.4709
dust_brightnessfactor = 1.5
orbit_AscendingNode = 68.7297
slope_parameter = 4
orbit_visualization_period = 2039.3829816618857
albedo = 0.1
orbit_good = 1000
dust_widthfactor = 1.5
orbit_Eccentricity = 0.509401
orbit_ArgOfPericenter = 179.3213
orbit_TimeAtPericenter = 2459643.365497685

[10ptempel]
orbit_PericenterDistance = 1.412433
absolute_magnitude = 3.7
type = comet
coord_func = comet_orbit
dust_lengthfactor = 0.4
radius = 5
name = 10P/Tempel
orbit_Inclination = 12.0398
dust_brightnessfactor = 1.5
orbit_AscendingNode = 117.8095
slope_parameter = 10
orbit_visualization_period = 1955.9174877969892
albedo = 0.1
orbit_good = 977
dust_widthfactor = 1.5
orbit_Eccentricity = 0.538541
orbit_ArgOfPericenter = 195.5176
orbit_TimeAtPericenter = 2459297.794791667

[11ptempelswiftlinear]
orbit_PericenterDistance = 1.388768
absolute_magnitude = 13
type = comet
coord_func = comet_orbit
dust_lengthfactor = 0.4
radius = 5
name = 11P/Tempel-Swift-LINEAR
orbit_Inclination = 14.4209
dust_brightnessfactor = 1.5
orbit_AscendingNode = 238.9168
slope_parameter = 11.9
orbit_visualization_period = 2172.501319082719
albedo = 0.1
orbit_good = 1000
dust_widthfactor = 1.5
orbit_Eccentricity = 0.576953
orbit_ArgOfPericenter = 167.9435
orbit_TimeAtPericenter = 2459179.7580902777

[12pponsbrooks]
orbit_PericenterDistance = 0.781396
absolute_magnitude = 5
type = comet
coord_func = comet_orbit
dust_lengthfactor = 0.4
radius = 5
name = 12P/Pons-Brooks
orbit_Inclination = 74.0927
dust_brightnessfactor = 1.5
orbit_AscendingNode = 255.7283
slope_parameter = 6
orbit_visualization_period = 25837.159044419524
albedo = 0.1
orbit_good = 1000
dust_widthfactor = 1.5
orbit_Eccentricity = 0.954315
orbit_ArgOfPericenter = 199.0295
orbit_TimeAtPericenter = 2460421.496388889

[13polbers]
orbit_PericenterDistance = 1.172849
absolute_magnitude = 5
type = comet
coord_func = comet_orbit
dust_lengthfactor = 0.4
radius = 5
name = 13P/Olbers
orbit_Inclination = 44.6257
dust_brightnessfactor = 1.5
orbit_AscendingNode = 85.8682
slope_parameter = 6
orbit_visualization_period = 24896.586186553253
albedo = 0.1
orbit_good = 1000
dust_widthfactor = 1.5
orbit_Eccentricity = 0.929712
orbit_ArgOfPericenter = 64.518
orbit_TimeAtPericenter = 2460492.9508912037

[14pwolf]
orbit_PericenterDistance = 2.739726
absolute_magnitude = 5.5
type = comet
coord_func = comet_orbit
dust_lengthfactor = 0.4
radius = 5
name = 14P/Wolf
orbit_Inclination = 27.9052
dust_brightnessfactor = 1.5
orbit_AscendingNode = 202.0706
slope_parameter = 12
orbit_visualization_period = 3210.4816328894794
albedo = 0.1
orbit_good = 1000
dust_widthfactor = 1.5
orbit_Eccentricity = 0.356731
orbit_ArgOfPericenter = 158.9887
orbit_TimeAtPericenter = 2458089.7817939813

[15pfinlay]
orbit_PericenterDistance = 0.991806
absolute_magnitude = 12
type = comet
coord_func = comet_orbit
dust_lengthfactor = 0.4
radius = 5
name = 15P/Finlay
orbit_Inclination = 6.7976
dust_brightnessfactor = 1.5
orbit_AscendingNode = 13.7214
slope_parameter = 4
orbit_visualization_period = 2396.422973379498
albedo = 0.1
orbit_good = 1000
dust_widthfactor = 1.5
orbit_Eccentricity = 0.717002
orbit_ArgOfPericenter = 347.8338
orbit_TimeAtPericenter = 2459409.056388889

[16pbrooks]
orbit_PericenterDistance = 1.878106
absolute_magnitude = 7.5
type = comet
coord_func = comet_orbit
dust_lengthfactor = 0.4
radius = 5
name = 16P/Brooks
orbit_Inclination = 3.0116
dust_brightnessfactor = 1.5
orbit_AscendingNode = 138.869
slope_parameter = 10
orbit_visualization_period = 2555.1408555019134
albedo = 0.1
orbit_good = 1000
dust_widthfactor = 1.5
orbit_Eccentricity = 0.486537
orbit_ArgOfPericenter = 245.1567
orbit_TimeAtPericenter = 2459322.614895833

[17pholmes]
orbit_PericenterDistance = 2.08064
absolute_magnitude = 10
type = comet
coord_func = comet_orbit
dust_lengthfactor = 0.4
radius = 5
name = 17P/Holmes
orbit_Inclination = 19.0307
dust_brightnessfactor = 1.5
orbit_AscendingNode = 326.62
slope_parameter = 6
orbit_visualization_period = 2534.33242163184
albedo = 0.1
orbit_good = 1000
dust_widthfactor = 1.5
orbit_Eccentricity = 0.428056
orbit_ArgOfPericenter = 24.4743
orbit_TimeAtPericenter = 2459265.3345949072

[19pborrelly]
orbit_PericenterDistance = 1.305101
absolute_magnitude = 4.5
type = comet
coord_func = comet_orbit
dust_lengthfactor = 0.4
radius = 5
name = 19P/Borrelly
orbit_Inclination = 29.3522
dust_brightnessfactor = 1.5
orbit_AscendingNode = 74.3576
slope_parameter = 10
orbit_visualization_period = 2501.7236854831444
albedo = 0.1
orbit_good = 1000
dust_widthfactor = 1.5
orbit_Eccentricity = 0.638132
orbit_ArgOfPericenter = 351.8334
orbit_TimeAtPericenter = 2459612.169594907

[21pgiacobinizinner]
orbit_PericenterDistance = 1.011219
absolute_magnitude = 9.4
type = comet
coord_func = comet_orbit
dust_lengthfactor = 0.4
radius = 5
name = 21P/Giacobini-Zinner
orbit_Inclination = 32.0196
dust_brightnessfactor = 1.5
orbit_AscendingNode = 195.3592
slope_parameter = 7.3
orbit_visualization_period = 2387.4838471750463
albedo = 0.1
orbit_good = 1000
dust_widthfactor = 1.5
orbit_Eccentricity = 0.710743
orbit_ArgOfPericenter = 172.8493
orbit_TimeAtPericenter = 2458371.961099537

[22pkopff]
orbit_PericenterDistance = 1.552961
absolute_magnitude = 3
type = comet
coord_func = comet_orbit
dust_lengthfactor = 0.4
radius = 5
name = 22P/Kopff
orbit_Inclination = 4.742
dust_brightnessfactor = 1.5
orbit_AscendingNode = 120.8371
slope_parameter = 10.4
orbit_visualization_period = 2332.9734307146177
albedo = 0.1
orbit_good = 1000
dust_widthfactor = 1.5
orbit_Eccentricity = 0.548886
orbit_ArgOfPericenter = 162.9723
orbit_TimeAtPericenter = 2459656.528391204

[23pbrorsenmetcalf]
orbit_PericenterDistance = 0.489812
absolute_magnitude = 10
type = comet
coord_func = comet_orbit
dust_lengthfactor = 0.4
radius = 5
name = 23P/Brorsen-Metcalf
orbit_Inclination = 19.1327
dust_brightnessfactor = 1.5
orbit_AscendingNode = 312.421
slope_parameter = 6
orbit_visualization_period = 25496.240598759956
albedo = 0.1
orbit_good = 1000
dust_widthfactor = 1.5
orbit_Eccentricity = 0.971108
orbit_ArgOfPericenter = 128.8131
orbit_TimeAtPericenter = 2447748.241597222

[24pschaumasse]
orbit_PericenterDistance = 1.180243
absolute_magnitude = 5.2
type = comet
coord_func = comet_orbit
dust_lengthfactor = 0.4
radius = 5
name = 24P/Schaumasse
orbit_Inclination = 11.6197
dust_brightnessfactor = 1.5
orbit_AscendingNode = 79.1114
slope_parameter = 14
orbit_visualization_period = 2982.3862212498193
albedo = 0.1
orbit_good = 1000
dust_widthfactor = 1.5
orbit_Eccentricity = 0.708932
orbit_ArgOfPericenter = 57.8872
orbit_TimeAtPericenter = 2458074.164097222

[26pgriggskjellerup]
orbit_PericenterDistance = 1.083402
absolute_magnitude = 12
type = comet
coord_func = comet_orbit
dust_lengthfactor = 0.4
radius = 5
name = 26P/Grigg-Skjellerup
orbit_Inclination = 22.4409
dust_brightnessfactor = 1.5
orbit_AscendingNode = 211.54
slope_parameter = 16
orbit_visualization_period = 1911.2357946912248
albedo = 0.1
orbit_good = 955
dust_widthfactor = 1.5
orbit_Eccentricity = 0.640544
orbit_ArgOfPericenter = 2.1913
orbit_TimeAtPericenter = 2458393.0392939816

[27pcrommelin]
orbit_PericenterDistance = 0.753088
absolute_magnitude = 12
type = comet
coord_func = comet_orbit
dust_lengthfactor = 0.4
radius = 5
name = 27P/Crommelin
orbit_Inclination = 29.1525
dust_brightnessfactor = 1.5
orbit_AscendingNode = 250.5865
slope_parameter = 8
orbit_visualization_period = 10173.538706914487
albedo = 0.1
orbit_good = 1000
dust_widthfactor = 1.5
orbit_Eccentricity = 0.918041
orbit_ArgOfPericenter = 195.9798
orbit_TimeAtPericenter = 2455766.436597222

[28pneujmin]
orbit_PericenterDistance = 1.578157
absolute_magnitude = 7.7
type = comet
coord_func = comet_orbit
dust_lengthfactor = 0.4
radius = 5
name = 28P/Neujmin
orbit_Inclination = 14.3109
dust_brightnessfactor = 1.5
orbit_AscendingNode = 346.3367
slope_parameter = 6
orbit_visualization_period = 6733.760319574294
albedo = 0.1
orbit_good = 1000
dust_widthfactor = 1.5
orbit_Eccentricity = 0.77386
orbit_ArgOfPericenter = 347.4196
orbit_TimeAtPericenter = 2459285.4028935186

[29pschwassmannwachmann]
orbit_PericenterDistance = 5.767772
absolute_magnitude = 3.4
type = comet
coord_func = comet_orbit
dust_lengthfactor = 0.4
radius = 5
name = 29P/Schwassmann-Wachmann
orbit_Inclination = 9.3668
dust_brightnessfactor = 1.5
orbit_AscendingNode = 312.3751
slope_parameter = 4
orbit_visualization_period = 5415.319498063804
albedo = 0.1
orbit_good = 1000
dust_widthfactor = 1.5
orbit_Eccentricity = 0.044294
orbit_ArgOfPericenter = 48.5579
orbit_TimeAtPericenter = 2458560.9267939813

[30preinmuth]
orbit_PericenterDistance = 1.713288
absolute_magnitude = 9.5
type = comet
coord_func = comet_orbit
dust_lengthfactor = 0.4
radius = 5
name = 30P/Reinmuth
orbit_Inclination = 8.6097
dust_brightnessfactor = 1.5
orbit_AscendingNode = 118.9352
slope_parameter = 6
orbit_visualization_period = 2571.095361581916
albedo = 0.1
orbit_good = 1000
dust_widthfactor = 1.5
orbit_Eccentricity = 0.533537
orbit_ArgOfPericenter = 11.1216
orbit_TimeAtPericenter = 2457993.1065972224

